[{"OBJECT_NAME":"ION SCV-004","OBJECT_ID":"2022-002K","EPOCH":"2026-03-09T16:32:03.244416","MEAN_MOTION":15.29369331,"ECCENTRICITY":0.00072157,"INCLINATION":97.2961,"RA_OF_ASC_NODE":128.2294,"ARG_OF_PERICENTER":1.6783,"MEAN_ANOMALY":358.448,"EPHEMERIS_TYPE":0,"CLASSIFICATION_TYPE":"U","NORAD_CAT_ID":50993,"ELEMENT_SET_NO":999,"REV_AT_EPOCH":23008,"BSTAR":0.00023198467,"MEAN_MOTION_DOT":6.538e-5,"MEAN_MOTION_DDOT":0},{"OBJECT_NAME":"STARLINK-32454","OBJECT_ID":"2024-224D","EPOCH":"2026-03-09T22:56:15.709632","MEAN_MOTION":15.27634664,"ECCENTRICITY":0.00010506,"INCLINATION":42.9946,"RA_OF_ASC_NODE":164.1288,"ARG_OF_PERICENTER":319.9086,"MEAN_ANOMALY":40.1688,"EPHEMERIS_TYPE":0,"CLASSIFICATION_TYPE":"U","NORAD_CAT_ID":62142,"ELEMENT_SET_NO":999,"REV_AT_EPOCH":7243,"BSTAR":0.0015060992,"MEAN_MOTION_DOT":0.00041485,"MEAN_MOTION_DDOT":0}]
